{
  "type": "FeatureCollection",
  "features": [
    {
      "type": "Feature",
      "properties": {
        "norad_id": 34815,
        "name": "COSMOS 2251 DEB",
        "group": "cosmos-2251-debris",
        "lat": 39.07824725765695,
        "lon": 38.40091613702714,
        "alt_km": 670.1239650499874,
        "timestamp": "2025-12-17T19:34:08.432893+00:00",
        "meta_object_name": "COSMOS 2251 DEB",
        "meta_object_id": "1993-036ABE",
        "meta_epoch": "2025-12-17T02:41:53.551968",
        "meta_mean_motion": 14.78366117,
        "meta_eccentricity": 0.00588329,
        "meta_inclination": 74.045,
        "meta_ra_of_asc_node": 233.2142,
        "meta_arg_of_pericenter": 301.3829,
        "meta_mean_anomaly": 58.1599,
        "meta_ephemeris_type": 0,
        "meta_classification_type": "U",
        "meta_norad_cat_id": 34815,
        "meta_element_set_no": 999,
        "meta_rev_at_epoch": 88692,
        "meta_bstar": 0.00061090147,
        "meta_mean_motion_dot": 4.544e-05,
        "meta_mean_motion_ddot": 0,
        "tle_line1": "1 34815U 93036ABE 25351.11242537  .00004544  00000+0  61090-3 0  9998",
        "tle_line2": "2 34815  74.0450 233.2142 0058832 301.3829  58.1599 14.78366117886926"
      },
      "geometry": {
        "type": "Point",
        "coordinates": [
          38.40091613702714,
          39.07824725765695
        ]
      }
    },
    {
      "type": "Feature",
      "properties": {
        "norad_id": 34816,
        "name": "COSMOS 2251 DEB",
        "group": "cosmos-2251-debris",
        "lat": 53.694871687856896,
        "lon": 158.00989507896443,
        "alt_km": 1248.516367654035,
        "timestamp": "2025-12-17T19:34:08.432903+00:00",
        "meta_object_name": "COSMOS 2251 DEB",
        "meta_object_id": "1993-036ABF",
        "meta_epoch": "2025-12-15T18:06:42.079680",
        "meta_mean_motion": 13.58332319,
        "meta_eccentricity": 0.03733711,
        "meta_inclination": 73.8856,
        "meta_ra_of_asc_node": 138.2013,
        "meta_arg_of_pericenter": 202.1531,
        "meta_mean_anomaly": 224.4448,
        "meta_ephemeris_type": 0,
        "meta_classification_type": "U",
        "meta_norad_cat_id": 34816,
        "meta_element_set_no": 999,
        "meta_rev_at_epoch": 82824,
        "meta_bstar": 0.0011149526,
        "meta_mean_motion_dot": 1.255e-05,
        "meta_mean_motion_ddot": 0,
        "tle_line1": "1 34816U 93036ABF 25349.75465370  .00001255  00000+0  11150-2 0  9995",
        "tle_line2": "2 34816  73.8856 138.2013 0373371 202.1531 224.4448 13.58332319828247"
      },
      "geometry": {
        "type": "Point",
        "coordinates": [
          158.00989507896443,
          53.694871687856896
        ]
      }
    },
    {
      "type": "Feature",
      "properties": {
        "norad_id": 34818,
        "name": "COSMOS 2251 DEB",
        "group": "cosmos-2251-debris",
        "lat": 19.21884641696632,
        "lon": -66.6661309387958,
        "alt_km": 751.7802209831943,
        "timestamp": "2025-12-17T19:34:08.432913+00:00",
        "meta_object_name": "COSMOS 2251 DEB",
        "meta_object_id": "1993-036ABH",
        "meta_epoch": "2025-12-17T06:48:44.260704",
        "meta_mean_motion": 14.36973079,
        "meta_eccentricity": 0.0024357,
        "meta_inclination": 74.0363,
        "meta_ra_of_asc_node": 288.5839,
        "meta_arg_of_pericenter": 3.1209,
        "meta_mean_anomaly": 148.3682,
        "meta_ephemeris_type": 0,
        "meta_classification_type": "U",
        "meta_norad_cat_id": 34818,
        "meta_element_set_no": 999,
        "meta_rev_at_epoch": 87435,
        "meta_bstar": 0.00018804644,
        "meta_mean_motion_dot": 5.33e-06,
        "meta_mean_motion_ddot": 0,
        "tle_line1": "1 34818U 93036ABH 25351.28384561  .00000533  00000+0  18805-3 0  9993",
        "tle_line2": "2 34818  74.0363 288.5839 0024357   3.1209 148.3682 14.36973079874356"
      },
      "geometry": {
        "type": "Point",
        "coordinates": [
          -66.6661309387958,
          19.21884641696632
        ]
      }
    },
    {
      "type": "Feature",
      "properties": {
        "norad_id": 34819,
        "name": "COSMOS 2251 DEB",
        "group": "cosmos-2251-debris",
        "lat": 65.63946060924656,
        "lon": 172.1729916572803,
        "alt_km": 683.4345383516129,
        "timestamp": "2025-12-17T19:34:08.432924+00:00",
        "meta_object_name": "COSMOS 2251 DEB",
        "meta_object_id": "1993-036ABJ",
        "meta_epoch": "2025-12-16T02:47:00.153600",
        "meta_mean_motion": 14.64020669,
        "meta_eccentricity": 0.00156426,
        "meta_inclination": 74.0171,
        "meta_ra_of_asc_node": 136.1678,
        "meta_arg_of_pericenter": 230.4612,
        "meta_mean_anomaly": 248.0037,
        "meta_ephemeris_type": 0,
        "meta_classification_type": "U",
        "meta_norad_cat_id": 34819,
        "meta_element_set_no": 999,
        "meta_rev_at_epoch": 88278,
        "meta_bstar": 0.0011169462,
        "meta_mean_motion_dot": 5.841e-05,
        "meta_mean_motion_ddot": 0,
        "tle_line1": "1 34819U 93036ABJ 25350.11597400  .00005841  00000+0  11169-2 0  9995",
        "tle_line2": "2 34819  74.0171 136.1678 0015642 230.4612 248.0037 14.64020669882780"
      },
      "geometry": {
        "type": "Point",
        "coordinates": [
          172.1729916572803,
          65.63946060924656
        ]
      }
    },
    {
      "type": "Feature",
      "properties": {
        "norad_id": 34823,
        "name": "COSMOS 2251 DEB",
        "group": "cosmos-2251-debris",
        "lat": -43.408134506018555,
        "lon": 76.96832012740373,
        "alt_km": 796.7070182181733,
        "timestamp": "2025-12-17T19:34:08.432934+00:00",
        "meta_object_name": "COSMOS 2251 DEB",
        "meta_object_id": "1993-036ABN",
        "meta_epoch": "2025-12-17T08:13:57.781632",
        "meta_mean_motion": 14.54961237,
        "meta_eccentricity": 0.01543896,
        "meta_inclination": 74.0424,
        "meta_ra_of_asc_node": 93.5656,
        "meta_arg_of_pericenter": 177.2097,
        "meta_mean_anomaly": 182.9967,
        "meta_ephemeris_type": 0,
        "meta_classification_type": "U",
        "meta_norad_cat_id": 34823,
        "meta_element_set_no": 999,
        "meta_rev_at_epoch": 88448,
        "meta_bstar": 0.00051944316,
        "meta_mean_motion_dot": 2.591e-05,
        "meta_mean_motion_ddot": 0,
        "tle_line1": "1 34823U 93036ABN 25351.34302988  .00002591  00000+0  51944-3 0  9996",
        "tle_line2": "2 34823  74.0424  93.5656 0154389 177.2097 182.9967 14.54961237884486"
      },
      "geometry": {
        "type": "Point",
        "coordinates": [
          76.96832012740373,
          -43.408134506018555
        ]
      }
    },
    {
      "type": "Feature",
      "properties": {
        "norad_id": 34845,
        "name": "COSMOS 2251 DEB",
        "group": "cosmos-2251-debris",
        "lat": 60.02629371845966,
        "lon": -70.907610798029,
        "alt_km": 748.9687681455334,
        "timestamp": "2025-12-17T19:34:08.432944+00:00",
        "meta_object_name": "COSMOS 2251 DEB",
        "meta_object_id": "1993-036ABP",
        "meta_epoch": "2025-12-16T16:27:57.312000",
        "meta_mean_motion": 14.45867207,
        "meta_eccentricity": 0.0022475,
        "meta_inclination": 74.024,
        "meta_ra_of_asc_node": 140.983,
        "meta_arg_of_pericenter": 301.2672,
        "meta_mean_anomaly": 58.6284,
        "meta_ephemeris_type": 0,
        "meta_classification_type": "U",
        "meta_norad_cat_id": 34845,
        "meta_element_set_no": 999,
        "meta_rev_at_epoch": 87523,
        "meta_bstar": 0.00027004577,
        "meta_mean_motion_dot": 9.35e-06,
        "meta_mean_motion_ddot": 0,
        "tle_line1": "1 34845U 93036ABP 25350.68608000  .00000935  00000+0  27005-3 0  9991",
        "tle_line2": "2 34845  74.0240 140.9830 0022475 301.2672  58.6284 14.45867207875231"
      },
      "geometry": {
        "type": "Point",
        "coordinates": [
          -70.907610798029,
          60.02629371845966
        ]
      }
    },
    {
      "type": "Feature",
      "properties": {
        "norad_id": 34846,
        "name": "COSMOS 2251 DEB",
        "group": "cosmos-2251-debris",
        "lat": 71.24033523535716,
        "lon": -50.24913738156762,
        "alt_km": 737.2931928744792,
        "timestamp": "2025-12-17T19:34:08.432954+00:00",
        "meta_object_name": "COSMOS 2251 DEB",
        "meta_object_id": "1993-036ABQ",
        "meta_epoch": "2025-12-17T04:16:11.570016",
        "meta_mean_motion": 14.47241501,
        "meta_eccentricity": 0.00261745,
        "meta_inclination": 74.031,
        "meta_ra_of_asc_node": 253.4753,
        "meta_arg_of_pericenter": 319.3047,
        "meta_mean_anomaly": 40.6155,
        "meta_ephemeris_type": 0,
        "meta_classification_type": "U",
        "meta_norad_cat_id": 34846,
        "meta_element_set_no": 999,
        "meta_rev_at_epoch": 87468,
        "meta_bstar": 0.00058608284,
        "meta_mean_motion_dot": 2.125e-05,
        "meta_mean_motion_ddot": 0,
        "tle_line1": "1 34846U 93036ABQ 25351.17791169  .00002125  00000+0  58608-3 0  9992",
        "tle_line2": "2 34846  74.0310 253.4753 0026174 319.3047  40.6155 14.47241501874681"
      },
      "geometry": {
        "type": "Point",
        "coordinates": [
          -50.24913738156762,
          71.24033523535716
        ]
      }
    }
  ]
}